<?xml version="1.0" encoding="UTF-8"?>
<ndm xmlns:xsi="http://www.w3.org/2001/XMLSchema-instance" xsi:noNamespaceSchemaLocation="https://sanaregistry.org/r/ndmxml_unqualified/ndmxml-2.0.0-master-2.0.xsd">
<omm id="CCSDS_OMM_VERS" version="2.0">
<header><CREATION_DATE/><ORIGINATOR/></header><body><segment><metadata><OBJECT_NAME>ORBCOMM-X [-]</OBJECT_NAME><OBJECT_ID>1991-050C</OBJECT_ID><CENTER_NAME>EARTH</CENTER_NAME><REF_FRAME>TEME</REF_FRAME><TIME_SYSTEM>UTC</TIME_SYSTEM><MEAN_ELEMENT_THEORY>SGP4</MEAN_ELEMENT_THEORY></metadata><data><meanElements><EPOCH>2024-03-31T20:59:52.274112</EPOCH><MEAN_MOTION>14.42423447</MEAN_MOTION><ECCENTRICITY>.0004874</ECCENTRICITY><INCLINATION>98.3960</INCLINATION><RA_OF_ASC_NODE>160.3301</RA_OF_ASC_NODE><ARG_OF_PERICENTER>86.9085</ARG_OF_PERICENTER><MEAN_ANOMALY>273.2663</MEAN_ANOMALY></meanElements><tleParameters><EPHEMERIS_TYPE>0</EPHEMERIS_TYPE><CLASSIFICATION_TYPE>U</CLASSIFICATION_TYPE><NORAD_CAT_ID>21576</NORAD_CAT_ID><ELEMENT_SET_NO>999</ELEMENT_SET_NO><REV_AT_EPOCH>71833</REV_AT_EPOCH><BSTAR>.17783E-3</BSTAR><MEAN_MOTION_DOT>.545E-5</MEAN_MOTION_DOT><MEAN_MOTION_DDOT>0</MEAN_MOTION_DDOT></tleParameters></data></segment></body></omm>
<omm id="CCSDS_OMM_VERS" version="2.0">
<header><CREATION_DATE/><ORIGINATOR/></header><body><segment><metadata><OBJECT_NAME>ORBCOMM FM01 [-]</OBJECT_NAME><OBJECT_ID>1995-017A</OBJECT_ID><CENTER_NAME>EARTH</CENTER_NAME><REF_FRAME>TEME</REF_FRAME><TIME_SYSTEM>UTC</TIME_SYSTEM><MEAN_ELEMENT_THEORY>SGP4</MEAN_ELEMENT_THEORY></metadata><data><meanElements><EPOCH>2024-03-31T16:21:47.571840</EPOCH><MEAN_MOTION>14.79137992</MEAN_MOTION><ECCENTRICITY>.0009033</ECCENTRICITY><INCLINATION>69.9665</INCLINATION><RA_OF_ASC_NODE>88.0978</RA_OF_ASC_NODE><ARG_OF_PERICENTER>273.1553</ARG_OF_PERICENTER><MEAN_ANOMALY>86.8562</MEAN_ANOMALY></meanElements><tleParameters><EPHEMERIS_TYPE>0</EPHEMERIS_TYPE><CLASSIFICATION_TYPE>U</CLASSIFICATION_TYPE><NORAD_CAT_ID>23545</NORAD_CAT_ID><ELEMENT_SET_NO>999</ELEMENT_SET_NO><REV_AT_EPOCH>54683</REV_AT_EPOCH><BSTAR>.9681E-3</BSTAR><MEAN_MOTION_DOT>.712E-4</MEAN_MOTION_DOT><MEAN_MOTION_DDOT>0</MEAN_MOTION_DDOT></tleParameters></data></segment></body></omm>
<omm id="CCSDS_OMM_VERS" version="2.0">
<header><CREATION_DATE/><ORIGINATOR/></header><body><segment><metadata><OBJECT_NAME>ORBCOMM FM02 [-]</OBJECT_NAME><OBJECT_ID>1995-017B</OBJECT_ID><CENTER_NAME>EARTH</CENTER_NAME><REF_FRAME>TEME</REF_FRAME><TIME_SYSTEM>UTC</TIME_SYSTEM><MEAN_ELEMENT_THEORY>SGP4</MEAN_ELEMENT_THEORY></metadata><data><meanElements><EPOCH>2024-03-31T18:24:38.253024</EPOCH><MEAN_MOTION>14.78721828</MEAN_MOTION><ECCENTRICITY>.0010887</ECCENTRICITY><INCLINATION>69.9680</INCLINATION><RA_OF_ASC_NODE>107.2411</RA_OF_ASC_NODE><ARG_OF_PERICENTER>269.1253</ARG_OF_PERICENTER><MEAN_ANOMALY>90.8648</MEAN_ANOMALY></meanElements><tleParameters><EPHEMERIS_TYPE>0</EPHEMERIS_TYPE><CLASSIFICATION_TYPE>U</CLASSIFICATION_TYPE><NORAD_CAT_ID>23546</NORAD_CAT_ID><ELEMENT_SET_NO>999</ELEMENT_SET_NO><REV_AT_EPOCH>54649</REV_AT_EPOCH><BSTAR>.9052E-3</BSTAR><MEAN_MOTION_DOT>.6588E-4</MEAN_MOTION_DOT><MEAN_MOTION_DDOT>0</MEAN_MOTION_DDOT></tleParameters></data></segment></body></omm>
<omm id="CCSDS_OMM_VERS" version="2.0">
<header><CREATION_DATE/><ORIGINATOR/></header><body><segment><metadata><OBJECT_NAME>ORBCOMM FM08 [-]</OBJECT_NAME><OBJECT_ID>1997-084A</OBJECT_ID><CENTER_NAME>EARTH</CENTER_NAME><REF_FRAME>TEME</REF_FRAME><TIME_SYSTEM>UTC</TIME_SYSTEM><MEAN_ELEMENT_THEORY>SGP4</MEAN_ELEMENT_THEORY></metadata><data><meanElements><EPOCH>2024-03-31T22:00:43.945056</EPOCH><MEAN_MOTION>14.42262202</MEAN_MOTION><ECCENTRICITY>.0007128</ECCENTRICITY><INCLINATION>45.0153</INCLINATION><RA_OF_ASC_NODE>325.1180</RA_OF_ASC_NODE><ARG_OF_PERICENTER>173.7886</ARG_OF_PERICENTER><MEAN_ANOMALY>186.3053</MEAN_ANOMALY></meanElements><tleParameters><EPHEMERIS_TYPE>0</EPHEMERIS_TYPE><CLASSIFICATION_TYPE>U</CLASSIFICATION_TYPE><NORAD_CAT_ID>25112</NORAD_CAT_ID><ELEMENT_SET_NO>999</ELEMENT_SET_NO><REV_AT_EPOCH>37744</REV_AT_EPOCH><BSTAR>.67761E-3</BSTAR><MEAN_MOTION_DOT>.2113E-4</MEAN_MOTION_DOT><MEAN_MOTION_DDOT>0</MEAN_MOTION_DDOT></tleParameters></data></segment></body></omm>
<omm id="CCSDS_OMM_VERS" version="2.0">
<header><CREATION_DATE/><ORIGINATOR/></header><body><segment><metadata><OBJECT_NAME>ORBCOMM FM10 [-]</OBJECT_NAME><OBJECT_ID>1997-084B</OBJECT_ID><CENTER_NAME>EARTH</CENTER_NAME><REF_FRAME>TEME</REF_FRAME><TIME_SYSTEM>UTC</TIME_SYSTEM><MEAN_ELEMENT_THEORY>SGP4</MEAN_ELEMENT_THEORY></metadata><data><meanElements><EPOCH>2024-03-31T22:07:26.387616</EPOCH><MEAN_MOTION>14.42181060</MEAN_MOTION><ECCENTRICITY>.0004942</ECCENTRICITY><INCLINATION>45.0166</INCLINATION><RA_OF_ASC_NODE>326.9218</RA_OF_ASC_NODE><ARG_OF_PERICENTER>142.6545</ARG_OF_PERICENTER><MEAN_ANOMALY>217.4650</MEAN_ANOMALY></meanElements><tleParameters><EPHEMERIS_TYPE>0</EPHEMERIS_TYPE><CLASSIFICATION_TYPE>U</CLASSIFICATION_TYPE><NORAD_CAT_ID>25113</NORAD_CAT_ID><ELEMENT_SET_NO>999</ELEMENT_SET_NO><REV_AT_EPOCH>55259</REV_AT_EPOCH><BSTAR>.74681E-3</BSTAR><MEAN_MOTION_DOT>.2339E-4</MEAN_MOTION_DOT><MEAN_MOTION_DDOT>0</MEAN_MOTION_DDOT></tleParameters></data></segment></body></omm>
<omm id="CCSDS_OMM_VERS" version="2.0">
<header><CREATION_DATE/><ORIGINATOR/></header><body><segment><metadata><OBJECT_NAME>ORBCOMM FM11 [+]</OBJECT_NAME><OBJECT_ID>1997-084C</OBJECT_ID><CENTER_NAME>EARTH</CENTER_NAME><REF_FRAME>TEME</REF_FRAME><TIME_SYSTEM>UTC</TIME_SYSTEM><MEAN_ELEMENT_THEORY>SGP4</MEAN_ELEMENT_THEORY></metadata><data><meanElements><EPOCH>2024-03-31T22:29:40.117632</EPOCH><MEAN_MOTION>14.42064741</MEAN_MOTION><ECCENTRICITY>.0005676</ECCENTRICITY><INCLINATION>45.0152</INCLINATION><RA_OF_ASC_NODE>326.8853</RA_OF_ASC_NODE><ARG_OF_PERICENTER>143.4740</ARG_OF_PERICENTER><MEAN_ANOMALY>216.6498</MEAN_ANOMALY></meanElements><tleParameters><EPHEMERIS_TYPE>0</EPHEMERIS_TYPE><CLASSIFICATION_TYPE>U</CLASSIFICATION_TYPE><NORAD_CAT_ID>25114</NORAD_CAT_ID><ELEMENT_SET_NO>999</ELEMENT_SET_NO><REV_AT_EPOCH>37756</REV_AT_EPOCH><BSTAR>.71777E-3</BSTAR><MEAN_MOTION_DOT>.2237E-4</MEAN_MOTION_DOT><MEAN_MOTION_DDOT>0</MEAN_MOTION_DDOT></tleParameters></data></segment></body></omm>
<omm id="CCSDS_OMM_VERS" version="2.0">
<header><CREATION_DATE/><ORIGINATOR/></header><body><segment><metadata><OBJECT_NAME>ORBCOMM FM12 [-]</OBJECT_NAME><OBJECT_ID>1997-084D</OBJECT_ID><CENTER_NAME>EARTH</CENTER_NAME><REF_FRAME>TEME</REF_FRAME><TIME_SYSTEM>UTC</TIME_SYSTEM><MEAN_ELEMENT_THEORY>SGP4</MEAN_ELEMENT_THEORY></metadata><data><meanElements><EPOCH>2024-03-31T23:10:06.728160</EPOCH><MEAN_MOTION>14.42032115</MEAN_MOTION><ECCENTRICITY>.0004715</ECCENTRICITY><INCLINATION>45.0156</INCLINATION><RA_OF_ASC_NODE>326.4336</RA_OF_ASC_NODE><ARG_OF_PERICENTER>143.4912</ARG_OF_PERICENTER><MEAN_ANOMALY>216.6260</MEAN_ANOMALY></meanElements><tleParameters><EPHEMERIS_TYPE>0</EPHEMERIS_TYPE><CLASSIFICATION_TYPE>U</CLASSIFICATION_TYPE><NORAD_CAT_ID>25115</NORAD_CAT_ID><ELEMENT_SET_NO>999</ELEMENT_SET_NO><REV_AT_EPOCH>37736</REV_AT_EPOCH><BSTAR>.68412E-3</BSTAR><MEAN_MOTION_DOT>.2124E-4</MEAN_MOTION_DOT><MEAN_MOTION_DDOT>0</MEAN_MOTION_DDOT></tleParameters></data></segment></body></omm>
<omm id="CCSDS_OMM_VERS" version="2.0">
<header><CREATION_DATE/><ORIGINATOR/></header><body><segment><metadata><OBJECT_NAME>ORBCOMM FM09 [-]</OBJECT_NAME><OBJECT_ID>1997-084E</OBJECT_ID><CENTER_NAME>EARTH</CENTER_NAME><REF_FRAME>TEME</REF_FRAME><TIME_SYSTEM>UTC</TIME_SYSTEM><MEAN_ELEMENT_THEORY>SGP4</MEAN_ELEMENT_THEORY></metadata><data><meanElements><EPOCH>2024-03-31T21:45:19.111680</EPOCH><MEAN_MOTION>14.41997479</MEAN_MOTION><ECCENTRICITY>.0005862</ECCENTRICITY><INCLINATION>45.0162</INCLINATION><RA_OF_ASC_NODE>327.3899</RA_OF_ASC_NODE><ARG_OF_PERICENTER>129.0126</ARG_OF_PERICENTER><MEAN_ANOMALY>231.1246</MEAN_ANOMALY></meanElements><tleParameters><EPHEMERIS_TYPE>0</EPHEMERIS_TYPE><CLASSIFICATION_TYPE>U</CLASSIFICATION_TYPE><NORAD_CAT_ID>25116</NORAD_CAT_ID><ELEMENT_SET_NO>999</ELEMENT_SET_NO><REV_AT_EPOCH>37759</REV_AT_EPOCH><BSTAR>.67408E-3</BSTAR><MEAN_MOTION_DOT>.2089E-4</MEAN_MOTION_DOT><MEAN_MOTION_DDOT>0</MEAN_MOTION_DDOT></tleParameters></data></segment></body></omm>

</ndm>
